[{"OBJECT_NAME":"TOMORROW-S1","OBJECT_ID":"2024-149M","EPOCH":"2026-03-09T17:23:34.533600","MEAN_MOTION":15.31198363,"ECCENTRICITY":0.00018188,"INCLINATION":97.3791,"RA_OF_ASC_NODE":149.6044,"ARG_OF_PERICENTER":207.204,"MEAN_ANOMALY":152.9106,"EPHEMERIS_TYPE":0,"CLASSIFICATION_TYPE":"U","NORAD_CAT_ID":60479,"ELEMENT_SET_NO":999,"REV_AT_EPOCH":8686,"BSTAR":0.0002885603,"MEAN_MOTION_DOT":8.62e-5,"MEAN_MOTION_DDOT":0},{"OBJECT_NAME":"STARLINK-34916","OBJECT_ID":"2025-192Z","EPOCH":"2026-03-09T22:00:01.999584","MEAN_MOTION":15.30165793,"ECCENTRICITY":7.36e-5,"INCLINATION":53.1597,"RA_OF_ASC_NODE":231.0818,"ARG_OF_PERICENTER":70.1758,"MEAN_ANOMALY":229.316,"EPHEMERIS_TYPE":0,"CLASSIFICATION_TYPE":"U","NORAD_CAT_ID":65427,"ELEMENT_SET_NO":999,"REV_AT_EPOCH":589,"BSTAR":0.002185813,"MEAN_MOTION_DOT":0.00064876,"MEAN_MOTION_DDOT":0}]
